{
    "links": {
        "self": "http://www.neowsapp.com/rest/v1/neo/54051253?api_key=iIulBulltgU6a56xZRHN4H3l9WmuAYTsLGpBGhQ2"
    },
    "id": "54051253",
    "neo_reference_id": "54051253",
    "name": "(2020 QB2)",
    "designation": "2020 QB2",
    "nasa_jpl_url": "http://ssd.jpl.nasa.gov/sbdb.cgi?sstr=54051253",
    "absolute_magnitude_h": 25.247,
    "estimated_diameter": {
        "kilometers": {
            "estimated_diameter_min": 0.0237222007,
            "estimated_diameter_max": 0.0530444534
        },
        "meters": {
            "estimated_diameter_min": 23.7222007384,
            "estimated_diameter_max": 53.044453427
        },
        "miles": {
            "estimated_diameter_min": 0.0147402876,
            "estimated_diameter_max": 0.0329602851
        },
        "feet": {
            "estimated_diameter_min": 77.8287450706,
            "estimated_diameter_max": 174.0303645814
        }
    },
    "is_potentially_hazardous_asteroid": false,
    "close_approach_data": [
        {
            "close_approach_date": "2020-08-10",
            "close_approach_date_full": "2020-Aug-10 01:46",
            "epoch_date_close_approach": 1597023960000,
            "relative_velocity": {
                "kilometers_per_second": "14.3524110953",
                "kilometers_per_hour": "51668.6799431963",
                "miles_per_hour": "32104.9083791488"
            },
            "miss_distance": {
                "astronomical": "0.0138695587",
                "lunar": "5.3952583343",
                "kilometers": "2074856.439359969",
                "miles": "1289256.0078228122"
            },
            "orbiting_body": "Earth"
        }
    ],
    "orbital_data": {
        "orbit_id": "4",
        "orbit_determination_date": "2020-09-23 07:11:05",
        "first_observation_date": "2020-08-14",
        "last_observation_date": "2020-09-18",
        "data_arc_in_days": 35,
        "observations_used": 28,
        "orbit_uncertainty": "7",
        "minimum_orbit_intersection": ".00432447",
        "jupiter_tisserand_invariant": "3.275",
        "epoch_osculation": "2459000.5",
        "eccentricity": ".6382649034919989",
        "semi_major_axis": "2.313815773858458",
        "inclination": "1.524574884828054",
        "ascending_node_longitude": "328.0752242188457",
        "orbital_period": "1285.557756449864",
        "perihelion_distance": ".8369883722584245",
        "perihelion_argument": "294.453138297829",
        "aphelion_distance": "3.790643175458492",
        "perihelion_time": "2459032.995357878921",
        "mean_anomaly": "350.9001919379202",
        "mean_motion": ".2800340927459837",
        "equinox": "J2000",
        "orbit_class": {
            "orbit_class_type": "APO",
            "orbit_class_description": "Near-Earth asteroid orbits which cross the Earth’s orbit similar to that of 1862 Apollo",
            "orbit_class_range": "a (semi-major axis) > 1.0 AU; q (perihelion) < 1.017 AU"
        }
    },
    "is_sentry_object": false
}